STARLINK-38005          
1 69677U 26145A   26196.55787703  .00207084  00000+0  13548-2 0  9992
2 69677  97.2834  43.4092 0001321 345.7590  14.3638 15.75207507  3234
STARLINK-38009          
1 69678U 26145B   26196.55611238  .00180352  00000+0  11835-2 0  9997
2 69678  97.2836  43.4122 0000552  40.0900 320.0406 15.75213183  3233
STARLINK-37998          
1 69679U 26145C   26196.33335648 -.00054361  00000+0 -36633-3 0  9998
2 69679  97.2837  43.1869 0001511  83.3346 108.5358 15.75162566  4458
STARLINK-37994          
1 69680U 26145D   26196.55505182  .00133481  00000+0  88086-3 0  9994
2 69680  97.2832  43.4138 0000643  44.0709 316.0608 15.75216527  3235
STARLINK-37992          
1 69681U 26145E   26196.55470099  .00187147  00000+0  12268-2 0  9999
2 69681  97.2836  43.4135 0000724   3.8713 356.2557 15.75218967  3234
STARLINK-37997          
1 69682U 26145F   26196.55349900  .06181243  00000+0  26774-1 0  9999
2 69682  97.2835  43.4157 0029105 217.0157 142.9103 15.79641049  3235
STARLINK-37990          
1 69683U 26145G   26196.58335648 -.00195637  00000+0 -13351-2 0  9993
2 69683  97.2835  43.4469 0001434  76.6219  87.8782 15.75291500  4493
STARLINK-37951          
1 69684U 26145H   26196.33335648 -.00090963  00000+0 -61472-3 0  9991
2 69684  97.2834  43.1875 0001489  93.1325 100.6771 15.75218188  4452
STARLINK-37957          
1 69685U 26145J   26196.55221912  .00135471  00000+0  89358-3 0  9999
2 69685  97.2828  43.4182 0001253  58.1811 301.9576 15.75221529  3237
STARLINK-37968          
1 69686U 26145K   26196.54623297  .00164819  00000+0  10835-2 0  9992
2 69686  97.2835  43.4268 0000908  32.5094 327.6227 15.75214668  3230
STARLINK-37977          
1 69687U 26145L   26196.54552606  .00146253  00000+0  96339-3 0  9994
2 69687  97.2839  43.4285 0000910  22.4372 337.6933 15.75222047  3239
STARLINK-37908          
1 69688U 26145M   26196.54340860  .00148573  00000+0  97875-3 0  9995
2 69688  97.2834  43.4312 0001319  10.3273 349.8019 15.75213317  3236
STARLINK-37979          
1 69689U 26145N   26196.54305522  .00175536  00000+0  11519-2 0  9991
2 69689  97.2845  43.4315 0000731   8.9679 351.1599 15.75225851  3237
STARLINK-37940          
1 69690U 26145P   26196.54202963 -.00860552  00000+0 -65205-2 0  9990
2 69690  97.2826  43.4321 0003248 236.6285 123.4670 15.74653863  3231
STARLINK-37961          
1 69691U 26145Q   26196.53881941  .00126221  00000+0  83383-3 0  9993
2 69691  97.2830  43.4364 0001444  86.6136 273.5294 15.75212867  3233
STARLINK-37787          
1 69692U 26145R   26196.53670288  .00124508  00000+0  82281-3 0  9996
2 69692  97.2829  43.4396 0001149  67.7661 292.3726 15.75209882  3234
STARLINK-37962          
1 69693U 26145S   26196.53494100  .00144542  00000+0  95280-3 0  9997
2 69693  97.2831  43.4422 0001125  64.5794 295.5587 15.75210378  3236
STARLINK-37953          
1 69694U 26145T   26196.53777788 -.00071397  00000+0 -48428-3 0  9995
2 69694  97.2834  43.4389 0000960 140.1295 220.0040 15.75072706  3233
STARLINK-37926          
1 69695U 26145U   26196.58335648 -.00213533  00000+0 -14595-2 0  9993
2 69695  97.2832  43.4902 0001582  84.0884 178.4002 15.75303673  4497
STARLINK-37959          
1 69696U 26145V   26196.53599769  .00116399  00000+0  77011-3 0  9998
2 69696  97.2832  43.4405 0001037  33.9321 326.2010 15.75206831  3231
STARLINK-37976          
1 69697U 26145W   26196.53317503  .00174769  00000+0  11457-2 0  9999
2 69697  97.2825  43.4447 0000930  98.2106 261.9264 15.75252510  3237
STARLINK-37912          
1 69698U 26145X   26196.53211593  .00156079  00000+0  10256-2 0  9992
2 69698  97.2823  43.4471 0001475 107.1267 253.0160 15.75249504  3232
STARLINK-37974          
1 69699U 26145Y   26196.53140975  .00148380  00000+0  97610-3 0  9994
2 69699  97.2827  43.4477 0001114  84.6899 275.4494 15.75246703  3239
STARLINK-37955          
1 69700U 26145Z   26196.52894053  .00114206  00000+0  75515-3 0  9999
2 69700  97.2832  43.4506 0001563 101.7308 258.4133 15.75226573  3239
STRIX-8                 
1 69701U 26146A   26196.61722653  .00002482  00000+0  18795-3 0  9996
2 69701  41.9903  10.7551 0007124  25.3405 334.7771 15.04436845  2849
STARLINK-38055          
1 69704U 26147A   26196.54903401  .00311122  00000+0  15579-2 0  9994
2 69704  97.2820 232.9553 0000592 304.1385  55.9827 15.80953977  3918
STARLINK-37898          
1 69705U 26147B   26196.04180173  .00284363  00000+0  14305-2 0  9995
2 69705  97.2835 232.4215 0001322  83.6910 276.4509 15.80922505  3831
STARLINK-37970          
1 69706U 26147C   26196.04105026  .00260828  00000+0  13162-2 0  9990
2 69706  97.2829 232.4225 0001124 112.0066 248.1322 15.80913938  3834
